LEASAT 5                
1 20410U 90002B   15078.56963569 -.00000092  00000-0  00000+0 0  9999
2 20410  11.1707  18.8816 0001927 210.7657 224.1952  1.00272639 77509
INTELSAT 701 (IS-701)   
1 22871U 93066A   15080.58604234 -.00000241  00000-0  00000+0 0  9997
2 22871   2.6193  71.6732 0003843 296.5825 351.9829  1.00271837 78252
INTELSAT 702 (IS-702)   
1 23124U 94034A   15081.10750382  .00000127  00000-0  10000-3 0  9997
2 23124   2.9637  70.1003 0002577 296.0986 244.6723  1.00273755 90213
INTELSAT 26 (IS-26)     
1 24732U 97007A   15080.65884638 -.00000029  00000-0  00000+0 0  9994
2 24732   6.1085  56.5724 0003723 319.2877 105.9355  1.00270620 66155
GALAXY 25 (G-25)        
1 24812U 97026A   15079.35519323 -.00000189  00000-0  00000+0 0  9992
2 24812   0.0298 286.9139 0006094 158.6198 126.7265  1.00271456 65177
INTELSAT 5 (IS-5)       
1 24916U 97046A   15080.40329223 -.00000166  00000-0  00000+0 0  9990
2 24916   1.9310  75.3214 0004230 302.8381 102.6032  1.00271431 64467
INTELSAT 805 (IS-805)   
1 25371U 98037A   15080.33324095 -.00000313  00000-0  10000-3 0  9990
2 25371   0.0396 100.6102 0002616 259.7442 242.6064  1.00269885 61398
INTELSAT 7 (IS-7)       
1 25473U 98052A   15080.22869742 -.00000169  00000-0  00000+0 0  9995
2 25473   1.5114  78.3481 0004786 227.3590 296.8378  1.00272033 60477
AFRISTAR                
1 25515U 98063A   15081.17119719  .00000099  00000-0  00000+0 0  9992
2 25515   1.7080  70.9112 0004342 293.3022 257.7274  1.00272965 60013
INTELSAT 8 (IS-8)       
1 25522U 98065A   15080.40358190 -.00000059  00000-0  00000+0 0  9992
2 25522   0.0388 250.6221 0003099 135.3176 106.9067  1.00272010 59985
GALAXY 27 (G-27)        
1 25922U 99052A   15080.87574400 -.00000031  00000-0  00000+0 0  9998
2 25922   1.5938  77.2411 0005204 313.6305 169.6509  1.00270793 56727
GALAXY 11 (G-11)        
1 26038U 99071A   15080.35385914 -.00000314  00000-0  10000-3 0  9990
2 26038   0.1057 279.5647 0000384 249.9538  80.7856  1.00270734 55939
SIRIUS-1                
1 26390U 00035A   15079.35582594 -.00000003  00000-0  00000+0 0  9994
2 26390  59.8644 237.1662 2649085 269.2106  64.0088  1.00272997 53916
INTELSAT 9 (IS-9)       
1 26451U 00043A   15081.06090657 -.00000297  00000-0  10000-3 0  9996
2 26451   1.9159  75.7982 0002772 292.8315 149.4220  1.00270906 53680
SIRIUS-2                
1 26483U 00051A   15078.65902185  .00000088  00000-0  00000+0 0  9991
2 26483  64.3232 117.0513 2662722 270.9560 289.0141  1.00282206 53249
INTELSAT 12 (IS-12)     
1 26590U 00068A   15080.96526501  .00000109  00000-0  00000+0 0  9993
2 26590   0.0212 245.6825 0002755 110.1225 215.8144  1.00272221 52663
INTELSAT 1R (IS-1R)     
1 26608U 00072A   15080.35398874 -.00000310  00000-0  00000+0 0  9996
2 26608   0.0478 313.8946 0001069   2.0320 300.0026  1.00268807 52505
SIRIUS-3                
1 26626U 00077A   15071.26213034 -.00000100  00000-0  00000+0 0  9992
2 26626  64.5099 356.8811 2686028 269.4471 262.2221  1.00282085 52307
XM-1 (ROLL)             
1 26761U 01018A   15077.61283609 -.00000048  00000-0  10000-3 0  9994
2 26761   0.1529 267.3014 0003388 316.2697  57.6165  1.00271717 50821
INTELSAT 10 (IS-10)     
1 26766U 01019A   15080.99170208  .00000099  00000-0  00000+0 0  9995
2 26766   0.0178 110.5065 0001918 257.6401 215.4979  1.00272761 50768
INTELSAT 901 (IS-901)   
1 26824U 01024A   15080.02531042 -.00000169  00000-0  00000+0 0  9996
2 26824   0.0390  37.1871 0003120 326.7450 165.3694  1.00271032 50483
INTELSAT 902 (IS-902)   
1 26900U 01039A   15078.62731001  .00000006  00000-0  00000+0 0  9996
2 26900   0.0230 138.0214 0002974 221.8246 104.7906  1.00273508 49602
DIRECTV 4S              
1 26985U 01052A   15079.20179503 -.00000138  00000-0  10000-3 0  9994
2 26985   0.0250 121.3902 0002623 274.9496 112.5137  1.00267359 48815
INTELSAT 904 (IS-904)   
1 27380U 02007A   15080.90656041  .00000021  00000-0  10000-3 0  9991
2 27380   0.0434  24.9285 0002891 344.4126 196.0903  1.00272298 47939
INTELSAT 903 (IS-903)   
1 27403U 02016A   15080.86337065 -.00000267  00000-0  00000+0 0  9992
2 27403   0.0322  57.6554 0003252 304.2080  93.4696  1.00270525 47523
DIRECTV 5 (TEMPO 1)     
1 27426U 02023A   15080.20032752 -.00000084  00000-0  10000-3 0  9990
2 27426   0.0035 171.4469 0003014 207.5912 121.3341  1.00272504 47150
INTELSAT 905 (IS-905)   
1 27438U 02027A   15080.59683813 -.00000213  00000-0  00000+0 0  9998
2 27438   0.0624 268.4958 0001915  84.8753  15.7491  1.00270923 46833
GALAXY 3C (G-3C)        
1 27445U 02030A   15078.09826669 -.00000177  00000-0  10000-3 0  9994
2 27445   0.0183  74.1810 0001768 297.1048 105.3354  1.00271046 46765
INTELSAT 906 (IS-906)   
1 27513U 02041A   15081.02504625 -.00000013  00000-0  00000+0 0  9998
2 27513   0.0052 260.4629 0003016 101.3219 250.5624  1.00271987 45887
INTELSAT 907 (IS-907)   
1 27683U 03007A   15080.85582752 -.00000231  00000-0  00000+0 0  9998
2 27683   0.0071 266.2916 0002750 106.7592  86.5515  1.00270871 44264
GALAXY 12 (G-12)        
1 27715U 03013B   15080.44399648  .00000031  00000-0  10000-3 0  9998
2 27715   0.0101 183.7422 0001270 175.6541 210.0372  1.00270812 43836
GALAXY 23 (G-23)        
1 27854U 03034A   15079.05142324  .00000000  00000-0  10000-3 0  9993
2 27854   0.0492  43.0702 0003266 294.0022  97.7589  1.00271485 42453
GALAXY 13 (HORIZONS-1)  
1 27954U 03044A   15081.08093013  .00000020  00000-0  00000+0 0  9998
2 27954   0.0009 190.9900 0000475 268.0888 342.2889  1.00273378 42049
DIRECTV 7S              
1 28238U 04016A   15080.36373633 -.00000026  00000-0  00000+0 0  9990
2 28238   0.0306  52.0098 0002899 308.6090 189.7896  1.00270517 39915
INTELSAT 10-02          
1 28358U 04022A   15080.83124191 -.00000039  00000-0  10000-3 0  9994
2 28358   0.0115 186.3527 0001705 261.0589  29.8590  1.00271867 39468
XM-3 (RHYTHM)           
1 28626U 05008A   15081.17365370 -.00000233  00000-0  10000-3 0  9997
2 28626   0.0174  62.0089 0000246  10.5702  84.1426  1.00269749 36901
SPACEWAY 1              
1 28644U 05015A   15080.56548431 -.00000130  00000-0  00000+0 0  9999
2 28644   0.0320 315.3808 0000104 331.9302 352.0707  1.00270941 36349
DIRECTV 8               
1 28659U 05019A   15080.58124720 -.00000143  00000-0  00000+0 0  9996
2 28659   0.0145  93.9921 0003219 266.1342 287.0079  1.00271486 36016
GALAXY 28 (G-28)        
1 28702U 05022A   15080.08426743 -.00000213  00000-0  00000+0 0  9992
2 28702   0.0101 237.1809 0002188 193.3496  49.0465  1.00270184 35703
GALAXY 14 (G-14)        
1 28790U 05030A   15080.22221569  .00000009  00000-0  10000-3 0  9990
2 28790   0.0095 273.5919 0001873  93.5880 126.2061  1.00269818 35135
GALAXY 15 (G-15)        
1 28884U 05041A   15078.15385843  .00000053  00000-0  00000+0 0  9995
2 28884   0.0152 109.2409 0001255 252.3716  97.1009  1.00271619 34475
SPACEWAY 2              
1 28903U 05046B   15080.48570226 -.00000154  00000-0  00000+0 0  9995
2 28903   0.0175  72.5166 0000013  42.1959 139.7288  1.00271614 34320
GALAXY 16 (G-16)        
1 29236U 06023A   15081.20856926 -.00000155  00000-0  10000-3 0  9992
2 29236   0.0196 243.3316 0003170 118.6880 153.4306  1.00271476 32101
DIRECTV 9S              
1 29494U 06043A   15079.36293402 -.00000141  00000-0  00000+0 0  9998
2 29494   0.0048 196.4485 0003150 164.9108 205.7571  1.00272033 30926
XM-4 (BLUES)            
1 29520U 06049A   15080.35394255 -.00000051  00000-0  00000+0 0  9993
2 29520   0.0250  51.2952 0000348 158.9736 340.4312  1.00270693 30823
GALAXY 17 (G-17)        
1 31307U 07016B   15079.19880578 -.00000201  00000-0  00000+0 0  9999
2 31307   0.0286 355.0759 0002921  23.9141 138.9576  1.00270781 28892
DIRECTV 10              
1 31862U 07032A   15080.56548431 -.00000131  00000-0  00000+0 0  9997
2 31862   0.0460 333.6483 0000129 218.9091  86.9320  1.00271598 28230
SPACEWAY 3              
1 32018U 07036A   15080.35294439 -.00000179  00000-0  10000-3 0  9995
2 32018   0.0174 357.9673 0006153 341.2176 231.4968  1.00270285 27958
INTELSAT 11 (IS-11)     
1 32253U 07044B   15080.35494106 -.00000297  00000-0  10000-3 0  9999
2 32253   0.0233 229.5206 0002585 130.7716 263.0093  1.00272944 27355
HORIZONS-2              
1 32388U 07063B   15080.83668697 -.00000210  00000-0  10000-3 0  9995
2 32388   0.0262 268.5697 0002439 108.1451 188.3409  1.00271155 26718
DIRECTV 11              
1 32729U 08013A   15080.48570219 -.00000154  00000-0  00000+0 0  9995
2 32729   0.0341   6.1378 0000180 104.0681 144.1220  1.00271517 25765
GALAXY 18 (G-18)        
1 32951U 08024A   15079.42835706 -.00000002  00000-0  00000+0 0  9993
2 32951   0.0103 143.6308 0002718 222.2949 202.8757  1.00271239 24933
INTELSAT 25 (IS-25)     
1 33153U 08034A   15080.13630118 -.00000252  00000-0  00000+0 0  9996
2 33153   0.0430 272.1094 0003739  83.7026 200.0601  1.00271071 24506
GALAXY 19 (G-19)        
1 33376U 08045A   15079.57479049 -.00000167  00000-0  00000+0 0  9990
2 33376   0.0084 201.1219 0002743 173.2980 273.2602  1.00271838 23713
SIRIUS FM-5             
1 35493U 09034A   15079.48614987 -.00000173  00000-0  00000+0 0  9990
2 35493   0.0248 271.1726 0000373 358.8133 346.7061  1.00272868 20856
INTELSAT 14 (IS-14)     
1 36097U 09064A   15080.35409545 -.00000302  00000-0  00000+0 0  9998
2 36097   0.0210 142.1852 0002404 239.3580 239.5166  1.00266617 19532
INTELSAT 15 (IS-15)     
1 36106U 09067A   15080.92776688 -.00000213  00000-0  10000-3 0  9996
2 36106   0.0071 185.0497 0002725 167.5822 245.6128  1.00270673 19438
DIRECTV 12              
1 36131U 09075A   15080.56548397 -.00000131  00000-0  10000-3 0  9996
2 36131   0.0098 265.5260 0000149  12.8096   1.2071  1.00271819 19212
INTELSAT 16 (IS-16)     
1 36397U 10006A   15078.70611833  .00000000  00000-0  10000-3 0  9999
2 36397   0.0178 352.6486 0001278  41.2619 318.1726  1.00265921 18600
XM-5                    
1 37185U 10053A   15081.17364734 -.00000233  00000-0  10000-3 0  9996
2 37185   0.0187 286.5234 0001275 104.4448 125.6389  1.00269822 16283
INTELSAT 17 (IS-17)     
1 37238U 10065B   15079.91909971 -.00000029  00000-0  00000+0 0  9993
2 37238   0.0126 131.8569 0002976 240.4670 202.6485  1.00272707 15777
INTELSAT NEW DAWN       
1 37392U 11016A   15080.03648639  .00000128  00000-0  10000-3 0  9991
2 37392   0.0260 244.1976 0000574  59.0158 280.9615  1.00278825 14369
INTELSAT 18 (IS-18)     
1 37834U 11056A   15080.46833926  .00000024  00000-0  00000+0 0  9998
2 37834   0.0080 118.4892 0001911 261.7278 147.0143  1.00270526 12728
INTELSAT 22 (IS-22)     
1 38098U 12011A   15078.71595323 -.00000085  00000-0  00000+0 0  9992
2 38098   0.0064  88.5917 0001817 268.0819 150.1294  1.00270146 10902
INTELSAT 19 (IS-19)     
1 38356U 12030A   15080.40350567 -.00000085  00000-0  00000+0 0  9998
2 38356   0.0329 302.1199 0002589  54.0777 133.6232  1.00271668 10349
INTELSAT 20 (IS-20)     
1 38740U 12043A   15081.03711259 -.00000053  00000-0  00000+0 0  9993
2 38740   0.0265 271.5265 0000338  28.8857 320.6411  1.00271578  9666
INTELSAT 21 (IS-21)     
1 38749U 12045A   15080.35380579 -.00000313  00000-0  00000+0 0  9994
2 38749   0.0144 109.5824 0002593 266.3463 231.9727  1.00270769  9473
INTELSAT 23 (IS-23)     
1 38867U 12057A   15081.06063978 -.00000313  00000-0  00000+0 0  9998
2 38867   0.0033 160.1085 0000955 218.1319 129.7918  1.00270574  8950
SIRIUS FM-6             
1 39360U 13058A   15078.21742071 -.00000043  00000-0  00000+0 0  9990
2 39360   0.0116 137.0224 0000615  67.5861 293.9300  1.00271983  5153
INTELSAT 30 (IS-30)     
1 40271U 14062A   15079.75675138 -.00000178  00000-0  00000+0 0  9997
2 40271   0.0195 142.5514 0001997  80.6693 132.0909  1.00270920  1591
